[
  {
    "COMMENT": "GENERATED VIA SPACETRACK.ORG API",
    "ORIGINATOR": "18 SPCS",
    "NORAD_CAT_ID": "41335",
    "OBJECT_NAME": "SENTINEL 3A",
    "OBJECT_TYPE": "PAYLOAD",
    "CLASSIFICATION_TYPE": "U",
    "INTLDES": "16011A",
    "EPOCH": "2023-06-08 02:38:16",
    "EPOCH_MICROSECONDS": "338048",
    "MEAN_MOTION": "14.26742189",
    "ECCENTRICITY": "0.0001339",
    "INCLINATION": "98.6216",
    "RA_OF_ASC_NODE": "226.2942",
    "ARG_OF_PERICENTER": "95.9426",
    "MEAN_ANOMALY": "264.1907",
    "EPHEMERIS_TYPE": "0",
    "ELEMENT_SET_NO": "999",
    "REV_AT_EPOCH": "38048",
    "BSTAR": "0.000087824",
    "MEAN_MOTION_DOT": "0.00000169",
    "MEAN_MOTION_DDOT": "0",
    "FILE": "3927492",
    "TLE_LINE0": "0 SENTINEL 3A",
    "TLE_LINE1": "1 41335U 16011A   23159.10991132  .00000169  00000-0  87824-4 0  9990",
    "TLE_LINE2": "2 41335  98.6216 226.2942 0001339  95.9426 264.1907 14.26742189380484",
    "OBJECT_ID": "2016-011A",
    "OBJECT_NUMBER": "41335",
    "SEMIMAJOR_AXIS": "7180.778",
    "PERIOD": "100.929",
    "APOGEE": "803.605",
    "PERIGEE": "801.682",
    "DECAYED": "0"
  },
  {
    "COMMENT": "GENERATED VIA SPACETRACK.ORG API",
    "ORIGINATOR": "18 SPCS",
    "NORAD_CAT_ID": "41335",
    "OBJECT_NAME": "SENTINEL 3A",
    "OBJECT_TYPE": "PAYLOAD",
    "CLASSIFICATION_TYPE": "U",
    "INTLDES": "16011A",
    "EPOCH": "2023-06-08 11:03:12",
    "EPOCH_MICROSECONDS": "330432",
    "MEAN_MOTION": "14.26742329",
    "ECCENTRICITY": "0.000134",
    "INCLINATION": "98.6216",
    "RA_OF_ASC_NODE": "226.6397",
    "ARG_OF_PERICENTER": "95.8827",
    "MEAN_ANOMALY": "264.2506",
    "EPHEMERIS_TYPE": "0",
    "ELEMENT_SET_NO": "999",
    "REV_AT_EPOCH": "38053",
    "BSTAR": "0.000086975",
    "MEAN_MOTION_DOT": "0.00000167",
    "MEAN_MOTION_DDOT": "0",
    "FILE": "3927777",
    "TLE_LINE0": "0 SENTINEL 3A",
    "TLE_LINE1": "1 41335U 16011A   23159.46055938  .00000167  00000-0  86975-4 0  9998",
    "TLE_LINE2": "2 41335  98.6216 226.6397 0001340  95.8827 264.2506 14.26742329380536",
    "OBJECT_ID": "2016-011A",
    "OBJECT_NUMBER": "41335",
    "SEMIMAJOR_AXIS": "7180.778",
    "PERIOD": "100.929",
    "APOGEE": "803.605",
    "PERIGEE": "801.680",
    "DECAYED": "0"
  },
  {
    "COMMENT": "GENERATED VIA SPACETRACK.ORG API",
    "ORIGINATOR": "18 SPCS",
    "NORAD_CAT_ID": "41335",
    "OBJECT_NAME": "SENTINEL 3A",
    "OBJECT_TYPE": "PAYLOAD",
    "CLASSIFICATION_TYPE": "U",
    "INTLDES": "16011A",
    "EPOCH": "2023-06-08 14:25:10",
    "EPOCH_MICROSECONDS": "727040",
    "MEAN_MOTION": "14.26742374",
    "ECCENTRICITY": "0.0001338",
    "INCLINATION": "98.6216",
    "RA_OF_ASC_NODE": "226.7779",
    "ARG_OF_PERICENTER": "96.0021",
    "MEAN_ANOMALY": "264.1312",
    "EPHEMERIS_TYPE": "0",
    "ELEMENT_SET_NO": "999",
    "REV_AT_EPOCH": "38055",
    "BSTAR": "0.000084376",
    "MEAN_MOTION_DOT": "0.00000161",
    "MEAN_MOTION_DDOT": "0",
    "FILE": "3928007",
    "TLE_LINE0": "0 SENTINEL 3A",
    "TLE_LINE1": "1 41335U 16011A   23159.60081860  .00000161  00000-0  84376-4 0  9994",
    "TLE_LINE2": "2 41335  98.6216 226.7779 0001338  96.0021 264.1312 14.26742374380553",
    "OBJECT_ID": "2016-011A",
    "OBJECT_NUMBER": "41335",
    "SEMIMAJOR_AXIS": "7180.777",
    "PERIOD": "100.929",
    "APOGEE": "803.603",
    "PERIGEE": "801.682",
    "DECAYED": "0"
  },
  {
    "COMMENT": "GENERATED VIA SPACETRACK.ORG API",
    "ORIGINATOR": "18 SPCS",
    "NORAD_CAT_ID": "41335",
    "OBJECT_NAME": "SENTINEL 3A",
    "OBJECT_TYPE": "PAYLOAD",
    "CLASSIFICATION_TYPE": "U",
    "INTLDES": "16011A",
    "EPOCH": "2023-06-08 14:25:10",
    "EPOCH_MICROSECONDS": "727040",
    "MEAN_MOTION": "14.26742374",
    "ECCENTRICITY": "0.0001338",
    "INCLINATION": "98.6216",
    "RA_OF_ASC_NODE": "226.7779",
    "ARG_OF_PERICENTER": "96.0021",
    "MEAN_ANOMALY": "264.1312",
    "EPHEMERIS_TYPE": "0",
    "ELEMENT_SET_NO": "999",
    "REV_AT_EPOCH": "38055",
    "BSTAR": "0.000084376",
    "MEAN_MOTION_DOT": "0.00000161",
    "MEAN_MOTION_DDOT": "0",
    "FILE": "3928044",
    "TLE_LINE0": "0 SENTINEL 3A",
    "TLE_LINE1": "1 41335U 16011A   23159.60081860  .00000161  00000-0  84376-4 0  9994",
    "TLE_LINE2": "2 41335  98.6216 226.7779 0001338  96.0021 264.1312 14.26742374380553",
    "OBJECT_ID": "2016-011A",
    "OBJECT_NUMBER": "41335",
    "SEMIMAJOR_AXIS": "7180.777",
    "PERIOD": "100.929",
    "APOGEE": "803.603",
    "PERIGEE": "801.682",
    "DECAYED": "0"
  },
  {
    "COMMENT": "GENERATED VIA SPACETRACK.ORG API",
    "ORIGINATOR": "18 SPCS",
    "NORAD_CAT_ID": "41335",
    "OBJECT_NAME": "SENTINEL 3A",
    "OBJECT_TYPE": "PAYLOAD",
    "CLASSIFICATION_TYPE": "U",
    "INTLDES": "16011A",
    "EPOCH": "2023-06-09 02:12:05",
    "EPOCH_MICROSECONDS": "102208",
    "MEAN_MOTION": "14.26742618",
    "ECCENTRICITY": "0.0001334",
    "INCLINATION": "98.6216",
    "RA_OF_ASC_NODE": "227.2616",
    "ARG_OF_PERICENTER": "95.8928",
    "MEAN_ANOMALY": "264.2404",
    "EPHEMERIS_TYPE": "0",
    "ELEMENT_SET_NO": "999",
    "REV_AT_EPOCH": "38062",
    "BSTAR": "0.000086242",
    "MEAN_MOTION_DOT": "0.00000165",
    "MEAN_MOTION_DDOT": "0",
    "FILE": "3928247",
    "TLE_LINE0": "0 SENTINEL 3A",
    "TLE_LINE1": "1 41335U 16011A   23160.09172572  .00000165  00000-0  86242-4 0  9998",
    "TLE_LINE2": "2 41335  98.6216 227.2616 0001334  95.8928 264.2404 14.26742618380620",
    "OBJECT_ID": "2016-011A",
    "OBJECT_NUMBER": "41335",
    "SEMIMAJOR_AXIS": "7180.777",
    "PERIOD": "100.929",
    "APOGEE": "803.600",
    "PERIGEE": "801.684",
    "DECAYED": "0"
  },
  {
    "COMMENT": "GENERATED VIA SPACETRACK.ORG API",
    "ORIGINATOR": "18 SPCS",
    "NORAD_CAT_ID": "41335",
    "OBJECT_NAME": "SENTINEL 3A",
    "OBJECT_TYPE": "PAYLOAD",
    "CLASSIFICATION_TYPE": "U",
    "INTLDES": "16011A",
    "EPOCH": "2023-06-09 10:37:01",
    "EPOCH_MICROSECONDS": "90272",
    "MEAN_MOTION": "14.26742713",
    "ECCENTRICITY": "0.0001334",
    "INCLINATION": "98.6216",
    "RA_OF_ASC_NODE": "227.6071",
    "ARG_OF_PERICENTER": "95.8325",
    "MEAN_ANOMALY": "264.3008",
    "EPHEMERIS_TYPE": "0",
    "ELEMENT_SET_NO": "999",
    "REV_AT_EPOCH": "38067",
    "BSTAR": "0.000082163",
    "MEAN_MOTION_DOT": "0.00000155",
    "MEAN_MOTION_DDOT": "0",
    "FILE": "3928596",
    "TLE_LINE0": "0 SENTINEL 3A",
    "TLE_LINE1": "1 41335U 16011A   23160.44237373  .00000155  00000-0  82163-4 0  9995",
    "TLE_LINE2": "2 41335  98.6216 227.6071 0001334  95.8325 264.3008 14.26742713380672",
    "OBJECT_ID": "2016-011A",
    "OBJECT_NUMBER": "41335",
    "SEMIMAJOR_AXIS": "7180.776",
    "PERIOD": "100.929",
    "APOGEE": "803.599",
    "PERIGEE": "801.683",
    "DECAYED": "0"
  },
  {
    "COMMENT": "GENERATED VIA SPACETRACK.ORG API",
    "ORIGINATOR": "18 SPCS",
    "NORAD_CAT_ID": "41335",
    "OBJECT_NAME": "SENTINEL 3A",
    "OBJECT_TYPE": "PAYLOAD",
    "CLASSIFICATION_TYPE": "U",
    "INTLDES": "16011A",
    "EPOCH": "2023-06-09 12:18:00",
    "EPOCH_MICROSECONDS": "285984",
    "MEAN_MOTION": "14.26742744",
    "ECCENTRICITY": "0.0001333",
    "INCLINATION": "98.6216",
    "RA_OF_ASC_NODE": "227.6762",
    "ARG_OF_PERICENTER": "95.8217",
    "MEAN_ANOMALY": "264.3116",
    "EPHEMERIS_TYPE": "0",
    "ELEMENT_SET_NO": "999",
    "REV_AT_EPOCH": "38068",
    "BSTAR": "0.000081403",
    "MEAN_MOTION_DOT": "0.00000153",
    "MEAN_MOTION_DDOT": "0",
    "FILE": "3928876",
    "TLE_LINE0": "0 SENTINEL 3A",
    "TLE_LINE1": "1 41335U 16011A   23160.51250331  .00000153  00000-0  81403-4 0  9996",
    "TLE_LINE2": "2 41335  98.6216 227.6762 0001333  95.8217 264.3116 14.26742744380683",
    "OBJECT_ID": "2016-011A",
    "OBJECT_NUMBER": "41335",
    "SEMIMAJOR_AXIS": "7180.776",
    "PERIOD": "100.929",
    "APOGEE": "803.598",
    "PERIGEE": "801.684",
    "DECAYED": "0"
  },
  {
    "COMMENT": "GENERATED VIA SPACETRACK.ORG API",
    "ORIGINATOR": "18 SPCS",
    "NORAD_CAT_ID": "41335",
    "OBJECT_NAME": "SENTINEL 3A",
    "OBJECT_TYPE": "PAYLOAD",
    "CLASSIFICATION_TYPE": "U",
    "INTLDES": "16011A",
    "EPOCH": "2023-06-09 17:20:57",
    "EPOCH_MICROSECONDS": "873120",
    "MEAN_MOTION": "14.26742831",
    "ECCENTRICITY": "0.0001333",
    "INCLINATION": "98.6216",
    "RA_OF_ASC_NODE": "227.8835",
    "ARG_OF_PERICENTER": "95.6527",
    "MEAN_ANOMALY": "264.4805",
    "EPHEMERIS_TYPE": "0",
    "ELEMENT_SET_NO": "999",
    "REV_AT_EPOCH": "38071",
    "BSTAR": "0.000079325",
    "MEAN_MOTION_DOT": "0.00000148",
    "MEAN_MOTION_DDOT": "0",
    "FILE": "3928914",
    "TLE_LINE0": "0 SENTINEL 3A",
    "TLE_LINE1": "1 41335U 16011A   23160.72289205  .00000148  00000-0  79325-4 0  9995",
    "TLE_LINE2": "2 41335  98.6216 227.8835 0001333  95.6527 264.4805 14.26742831380715",
    "OBJECT_ID": "2016-011A",
    "OBJECT_NUMBER": "41335",
    "SEMIMAJOR_AXIS": "7180.776",
    "PERIOD": "100.929",
    "APOGEE": "803.598",
    "PERIGEE": "801.684",
    "DECAYED": "0"
  }
]